[{"OBJECT_NAME":"NETSAT-1","OBJECT_ID":"2020-068W","EPOCH":"2026-03-09T22:42:38.711232","MEAN_MOTION":15.32042482,"ECCENTRICITY":0.00057337,"INCLINATION":97.8751,"RA_OF_ASC_NODE":63.2583,"ARG_OF_PERICENTER":18.5877,"MEAN_ANOMALY":341.5572,"EPHEMERIS_TYPE":0,"CLASSIFICATION_TYPE":"U","NORAD_CAT_ID":46506,"ELEMENT_SET_NO":999,"REV_AT_EPOCH":30009,"BSTAR":0.00059222329,"MEAN_MOTION_DOT":0.00018269,"MEAN_MOTION_DDOT":0},{"OBJECT_NAME":"STARLINK-32159","OBJECT_ID":"2024-132R","EPOCH":"2026-03-09T08:34:27.071328","MEAN_MOTION":15.30169192,"ECCENTRICITY":0.00013406,"INCLINATION":53.161,"RA_OF_ASC_NODE":53.6754,"ARG_OF_PERICENTER":85.2183,"MEAN_ANOMALY":274.8971,"EPHEMERIS_TYPE":0,"CLASSIFICATION_TYPE":"U","NORAD_CAT_ID":60293,"ELEMENT_SET_NO":999,"REV_AT_EPOCH":9151,"BSTAR":-9.0282338e-5,"MEAN_MOTION_DOT":-3.029e-5,"MEAN_MOTION_DDOT":0}]
